STARLINK-35056          
1 66266U 25247B   25317.66668981 -.02013989  00000+0 -15974-1 0  9994
2 66266  53.1588  15.6594 0001342  63.4979   6.0370 15.73607095  3211
STARLINK-35550          
1 66267U 25247C   25317.66668981 -.01829740  00000+0 -10789-1 0  9993
2 66267  53.1529  14.9658 0001290  49.2952 354.7101 15.80411312  2896
STARLINK-35069          
1 66268U 25247D   25317.66668981 -.02003400  00000+0 -15886-1 0  9995
2 66268  53.1587  15.6469 0001454  66.4978   8.7985 15.73594634  3168
STARLINK-34910          
1 66269U 25247E   25317.66668981 -.01677315  00000+0 -96014-2 0  9990
2 66269  53.1530  14.9837 0001048  46.5063 348.8370 15.81291519  3218
STARLINK-35757          
1 66270U 25247F   25317.66668981 -.01993830  00000+0 -15805-1 0  9993
2 66270  53.1589  15.6436 0001040  37.8242  39.3823 15.73592512  3269
STARLINK-35745          
1 66271U 25247G   25317.66668981 -.01986478  00000+0 -15746-1 0  9998
2 66271  53.1587  15.6396 0001050  43.3858  35.7484 15.73582443  3264
STARLINK-35741          
1 66272U 25247H   25317.66668981 -.01921218  00000+0 -15530-1 0  9991
2 66272  53.1589  15.6353 0000784 102.9891 338.0675 15.73565935  3260
STARLINK-35730          
1 66273U 25247J   25317.66668981 -.01918169  00000+0 -15505-1 0  9995
2 66273  53.1587  15.6312 0001393  76.4800   6.5111 15.73553481  3261
STARLINK-35760          
1 66274U 25247K   25317.66668981 -.01986998  00000+0 -15756-1 0  9999
2 66274  53.1587  15.6272 0001462  80.2784   4.6301 15.73569534  2948
STARLINK-35752          
1 66275U 25247L   25317.66668981 -.01983201  00000+0 -15718-1 0  9992
2 66275  53.1589  15.6231 0000960  92.3780 354.4273 15.73580671  2947
STARLINK-35742          
1 66276U 25247M   25317.66668981 -.01980964  00000+0 -15700-1 0  9997
2 66276  53.1588  15.6191 0001098  78.4552  10.2716 15.73576409  3266
STARLINK-35708          
1 66277U 25247N   25317.66668981 -.01983548  00000+0 -15721-1 0  9992
2 66277  53.1588  15.6150 0001148  75.1444  15.4967 15.73579049  3260
