CCSDS_OMM_VERS = 2.0
CREATION_DATE  = 
ORIGINATOR     = 

OBJECT_NAME    = STARLINK-35056
OBJECT_ID      = 2025-247B
CENTER_NAME    = EARTH
REF_FRAME      = TEME
TIME_SYSTEM    = UTC
MEAN_ELEMENT_THEORY = SGP/SGP4

EPOCH          = 2025-11-13T16:00:01.998720
MEAN_MOTION    = 15.73607095
ECCENTRICITY   = .0001342
INCLINATION    = 53.1588
RA_OF_ASC_NODE = 15.6594
ARG_OF_PERICENTER = 63.4979
MEAN_ANOMALY   = 6.0370

EPHEMERIS_TYPE = 0
CLASSIFICATION_TYPE = U
NORAD_CAT_ID   = 66266
ELEMENT_SET_NO = 999
REV_AT_EPOCH   = 321
BSTAR          = -.15974E-1
MEAN_MOTION_DOT = -.2013989E-1
MEAN_MOTION_DDOT = 0

CCSDS_OMM_VERS = 2.0
CREATION_DATE  = 
ORIGINATOR     = 

OBJECT_NAME    = STARLINK-35550
OBJECT_ID      = 2025-247C
CENTER_NAME    = EARTH
REF_FRAME      = TEME
TIME_SYSTEM    = UTC
MEAN_ELEMENT_THEORY = SGP/SGP4

EPOCH          = 2025-11-13T16:00:01.998720
MEAN_MOTION    = 15.80411312
ECCENTRICITY   = .000129
INCLINATION    = 53.1529
RA_OF_ASC_NODE = 14.9658
ARG_OF_PERICENTER = 49.2952
MEAN_ANOMALY   = 354.7101

EPHEMERIS_TYPE = 0
CLASSIFICATION_TYPE = U
NORAD_CAT_ID   = 66267
ELEMENT_SET_NO = 999
REV_AT_EPOCH   = 289
BSTAR          = -.10789E-1
MEAN_MOTION_DOT = -.182974E-1
MEAN_MOTION_DDOT = 0

CCSDS_OMM_VERS = 2.0
CREATION_DATE  = 
ORIGINATOR     = 

OBJECT_NAME    = STARLINK-35069
OBJECT_ID      = 2025-247D
CENTER_NAME    = EARTH
REF_FRAME      = TEME
TIME_SYSTEM    = UTC
MEAN_ELEMENT_THEORY = SGP/SGP4

EPOCH          = 2025-11-13T16:00:01.998720
MEAN_MOTION    = 15.73594633
ECCENTRICITY   = .0001454
INCLINATION    = 53.1587
RA_OF_ASC_NODE = 15.6469
ARG_OF_PERICENTER = 66.4978
MEAN_ANOMALY   = 8.7985

EPHEMERIS_TYPE = 0
CLASSIFICATION_TYPE = U
NORAD_CAT_ID   = 66268
ELEMENT_SET_NO = 999
REV_AT_EPOCH   = 316
BSTAR          = -.15886E-1
MEAN_MOTION_DOT = -.20034E-1
MEAN_MOTION_DDOT = 0

CCSDS_OMM_VERS = 2.0
CREATION_DATE  = 
ORIGINATOR     = 

OBJECT_NAME    = STARLINK-34910
OBJECT_ID      = 2025-247E
CENTER_NAME    = EARTH
REF_FRAME      = TEME
TIME_SYSTEM    = UTC
MEAN_ELEMENT_THEORY = SGP/SGP4

EPOCH          = 2025-11-13T16:00:01.998720
MEAN_MOTION    = 15.81291518
ECCENTRICITY   = .0001048
INCLINATION    = 53.1530
RA_OF_ASC_NODE = 14.9837
ARG_OF_PERICENTER = 46.5063
MEAN_ANOMALY   = 348.8370

EPHEMERIS_TYPE = 0
CLASSIFICATION_TYPE = U
NORAD_CAT_ID   = 66269
ELEMENT_SET_NO = 999
REV_AT_EPOCH   = 321
BSTAR          = -.96014E-2
MEAN_MOTION_DOT = -.1677315E-1
MEAN_MOTION_DDOT = 0

CCSDS_OMM_VERS = 2.0
CREATION_DATE  = 
ORIGINATOR     = 

OBJECT_NAME    = STARLINK-35757
OBJECT_ID      = 2025-247F
CENTER_NAME    = EARTH
REF_FRAME      = TEME
TIME_SYSTEM    = UTC
MEAN_ELEMENT_THEORY = SGP/SGP4

EPOCH          = 2025-11-13T16:00:01.998720
MEAN_MOTION    = 15.73592512
ECCENTRICITY   = .000104
INCLINATION    = 53.1589
RA_OF_ASC_NODE = 15.6436
ARG_OF_PERICENTER = 37.8242
MEAN_ANOMALY   = 39.3823

EPHEMERIS_TYPE = 0
CLASSIFICATION_TYPE = U
NORAD_CAT_ID   = 66270
ELEMENT_SET_NO = 999
REV_AT_EPOCH   = 326
BSTAR          = -.15805E-1
MEAN_MOTION_DOT = -.199383E-1
MEAN_MOTION_DDOT = 0

CCSDS_OMM_VERS = 2.0
CREATION_DATE  = 
ORIGINATOR     = 

OBJECT_NAME    = STARLINK-35745
OBJECT_ID      = 2025-247G
CENTER_NAME    = EARTH
REF_FRAME      = TEME
TIME_SYSTEM    = UTC
MEAN_ELEMENT_THEORY = SGP/SGP4

EPOCH          = 2025-11-13T16:00:01.998720
MEAN_MOTION    = 15.73582443
ECCENTRICITY   = .0001051
INCLINATION    = 53.1587
RA_OF_ASC_NODE = 15.6396
ARG_OF_PERICENTER = 43.3858
MEAN_ANOMALY   = 35.7484

EPHEMERIS_TYPE = 0
CLASSIFICATION_TYPE = U
NORAD_CAT_ID   = 66271
ELEMENT_SET_NO = 999
REV_AT_EPOCH   = 326
BSTAR          = -.15746E-1
MEAN_MOTION_DOT = -.1986478E-1
MEAN_MOTION_DDOT = 0

CCSDS_OMM_VERS = 2.0
CREATION_DATE  = 
ORIGINATOR     = 

OBJECT_NAME    = STARLINK-35741
OBJECT_ID      = 2025-247H
CENTER_NAME    = EARTH
REF_FRAME      = TEME
TIME_SYSTEM    = UTC
MEAN_ELEMENT_THEORY = SGP/SGP4

EPOCH          = 2025-11-13T16:00:01.999584
MEAN_MOTION    = 15.73565935
ECCENTRICITY   = .00007845
INCLINATION    = 53.1589
RA_OF_ASC_NODE = 15.6353
ARG_OF_PERICENTER = 102.9891
MEAN_ANOMALY   = 338.0675

EPHEMERIS_TYPE = 0
CLASSIFICATION_TYPE = U
NORAD_CAT_ID   = 66272
ELEMENT_SET_NO = 999
REV_AT_EPOCH   = 326
BSTAR          = -.15529748E-1
MEAN_MOTION_DOT = -.1921218E-1
MEAN_MOTION_DDOT = 0

CCSDS_OMM_VERS = 2.0
CREATION_DATE  = 
ORIGINATOR     = 

OBJECT_NAME    = STARLINK-35730
OBJECT_ID      = 2025-247J
CENTER_NAME    = EARTH
REF_FRAME      = TEME
TIME_SYSTEM    = UTC
MEAN_ELEMENT_THEORY = SGP/SGP4

EPOCH          = 2025-11-13T16:00:01.999584
MEAN_MOTION    = 15.73553481
ECCENTRICITY   = .0001393
INCLINATION    = 53.1587
RA_OF_ASC_NODE = 15.6312
ARG_OF_PERICENTER = 76.4800
MEAN_ANOMALY   = 6.5111

EPHEMERIS_TYPE = 0
CLASSIFICATION_TYPE = U
NORAD_CAT_ID   = 66273
ELEMENT_SET_NO = 999
REV_AT_EPOCH   = 326
BSTAR          = -.15504561E-1
MEAN_MOTION_DOT = -.1918169E-1
MEAN_MOTION_DDOT = 0

CCSDS_OMM_VERS = 2.0
CREATION_DATE  = 
ORIGINATOR     = 

OBJECT_NAME    = STARLINK-35760
OBJECT_ID      = 2025-247K
CENTER_NAME    = EARTH
REF_FRAME      = TEME
TIME_SYSTEM    = UTC
MEAN_ELEMENT_THEORY = SGP/SGP4

EPOCH          = 2025-11-13T16:00:01.999584
MEAN_MOTION    = 15.73569534
ECCENTRICITY   = .00014623
INCLINATION    = 53.1587
RA_OF_ASC_NODE = 15.6272
ARG_OF_PERICENTER = 80.2784
MEAN_ANOMALY   = 4.6301

EPHEMERIS_TYPE = 0
CLASSIFICATION_TYPE = U
NORAD_CAT_ID   = 66274
ELEMENT_SET_NO = 999
REV_AT_EPOCH   = 294
BSTAR          = -.15756182E-1
MEAN_MOTION_DOT = -.1986998E-1
MEAN_MOTION_DDOT = 0

CCSDS_OMM_VERS = 2.0
CREATION_DATE  = 
ORIGINATOR     = 

OBJECT_NAME    = STARLINK-35752
OBJECT_ID      = 2025-247L
CENTER_NAME    = EARTH
REF_FRAME      = TEME
TIME_SYSTEM    = UTC
MEAN_ELEMENT_THEORY = SGP/SGP4

EPOCH          = 2025-11-13T16:00:01.999584
MEAN_MOTION    = 15.73580671
ECCENTRICITY   = .00009609
INCLINATION    = 53.1589
RA_OF_ASC_NODE = 15.6231
ARG_OF_PERICENTER = 92.3780
MEAN_ANOMALY   = 354.4273

EPHEMERIS_TYPE = 0
CLASSIFICATION_TYPE = U
NORAD_CAT_ID   = 66275
ELEMENT_SET_NO = 999
REV_AT_EPOCH   = 294
BSTAR          = -.1571814E-1
MEAN_MOTION_DOT = -.1983201E-1
MEAN_MOTION_DDOT = 0

CCSDS_OMM_VERS = 2.0
CREATION_DATE  = 
ORIGINATOR     = 

OBJECT_NAME    = STARLINK-35742
OBJECT_ID      = 2025-247M
CENTER_NAME    = EARTH
REF_FRAME      = TEME
TIME_SYSTEM    = UTC
MEAN_ELEMENT_THEORY = SGP/SGP4

EPOCH          = 2025-11-13T16:00:01.999584
MEAN_MOTION    = 15.73576409
ECCENTRICITY   = .00010981
INCLINATION    = 53.1588
RA_OF_ASC_NODE = 15.6191
ARG_OF_PERICENTER = 78.4552
MEAN_ANOMALY   = 10.2716

EPHEMERIS_TYPE = 0
CLASSIFICATION_TYPE = U
NORAD_CAT_ID   = 66276
ELEMENT_SET_NO = 999
REV_AT_EPOCH   = 326
BSTAR          = -.15700003E-1
MEAN_MOTION_DOT = -.1980964E-1
MEAN_MOTION_DDOT = 0

CCSDS_OMM_VERS = 2.0
CREATION_DATE  = 
ORIGINATOR     = 

OBJECT_NAME    = STARLINK-35708
OBJECT_ID      = 2025-247N
CENTER_NAME    = EARTH
REF_FRAME      = TEME
TIME_SYSTEM    = UTC
MEAN_ELEMENT_THEORY = SGP/SGP4

EPOCH          = 2025-11-13T16:00:01.999584
MEAN_MOTION    = 15.73579049
ECCENTRICITY   = .00011486
INCLINATION    = 53.1588
RA_OF_ASC_NODE = 15.6150
ARG_OF_PERICENTER = 75.1444
MEAN_ANOMALY   = 15.4967

EPHEMERIS_TYPE = 0
CLASSIFICATION_TYPE = U
NORAD_CAT_ID   = 66277
ELEMENT_SET_NO = 999
REV_AT_EPOCH   = 326
BSTAR          = -.15721026E-1
MEAN_MOTION_DOT = -.1983548E-1
MEAN_MOTION_DDOT = 0

